[{"OBJECT_NAME":"STARLINK-34208","OBJECT_ID":"2025-144S","EPOCH":"2026-03-09T12:55:07.013568","MEAN_MOTION":15.30211693,"ECCENTRICITY":0.000144,"INCLINATION":53.1575,"RA_OF_ASC_NODE":179.2599,"ARG_OF_PERICENTER":129.4289,"MEAN_ANOMALY":230.6839,"EPHEMERIS_TYPE":0,"CLASSIFICATION_TYPE":"U","NORAD_CAT_ID":64740,"ELEMENT_SET_NO":999,"REV_AT_EPOCH":3972,"BSTAR":0.00079748045,"MEAN_MOTION_DOT":0.00023343,"MEAN_MOTION_DDOT":0},{"OBJECT_NAME":"COSMOS 1461","OBJECT_ID":"1983-044A","EPOCH":"2026-03-09T23:27:40.254336","MEAN_MOTION":15.35034079,"ECCENTRICITY":0.00529955,"INCLINATION":64.9902,"RA_OF_ASC_NODE":19.3405,"ARG_OF_PERICENTER":227.9657,"MEAN_ANOMALY":131.6963,"EPHEMERIS_TYPE":0,"CLASSIFICATION_TYPE":"U","NORAD_CAT_ID":14064,"ELEMENT_SET_NO":999,"REV_AT_EPOCH":20189,"BSTAR":0.00068784348,"MEAN_MOTION_DOT":0.00024451,"MEAN_MOTION_DDOT":0}]
